NORAD_CAT_ID,OBJECT_NAME,OBJECT_TYPE,EPOCH,MEAN_MOTION,ECCENTRICITY,INCLINATION,RA_OF_ASC_NODE,ARG_OF_PERICENTER,MEAN_ANOMALY,BSTAR,MEAN_MOTION_DOT,MEAN_MOTION_DDOT,TLE_LINE0,TLE_LINE1,TLE_LINE2,SEMIMAJOR_AXIS,PERIOD,APOGEE,PERIGEE,DECAYED
50809.0,STARLINK-3232,PAYLOAD,2022-01-31 22:00:01,15.73207831,0.0001524,53.2148,75.2436,35.3878,150.0641,0.00019961,0.00027495,0.0,0 STARLINK-3232,1 50809U 22001G   22031.91668981  .00027495  00000-0  19961-3 0  9999,2 50809  53.2148  75.2436 0001524  35.3878 150.0641 15.73207831  5256,6727.873000000001,91.533,350.76300000000015,348.713,0.0
50809.0,STARLINK-3232,PAYLOAD,2022-02-01 12:00:00,15.73201248,0.000185,53.2152,72.3588,36.3852,214.6724,7.787899999999999e-05,0.00010323,0.0,0 STARLINK-3232,1 50809U 22001G   22032.50001157  .00010323  00000-0  77879-4 0  9996,2 50809  53.2152  72.3588 0001850  36.3852 214.6724 15.73201248  5347,6727.892,91.533,351.001,348.51199999999994,0.0
50809.0,STARLINK-3232,PAYLOAD,2022-02-01 14:00:01,15.73219578,0.0001839,53.2148,71.9463,33.1022,330.251,-0.00022595,-0.00032238,0.0,0 STARLINK-3232,1 50809U 22001G   22032.58335648 -.00032238  00000-0 -22595-3 0  9994,2 50809  53.2148  71.9463 0001839  33.1022 330.2510 15.73219578  3688,6727.839,91.532,350.94199999999995,348.467,0.0
50809.0,STARLINK-3232,PAYLOAD,2022-02-01 20:00:01,15.73211743,0.0001569,53.2151,70.7074,32.6623,307.3366,-0.0007928,-0.00110494,0.0,0 STARLINK-3232,1 50809U 22001G   22032.83334491 -.00110494  00000-0 -79280-3 0  9991,2 50809  53.2151  70.7074 0001569  32.6623 307.3366 15.73211743  5398,6727.861999999999,91.532,350.782,348.671,0.0
50809.0,STARLINK-3232,PAYLOAD,2022-02-01 22:00:00,15.73167073,0.0001498,53.2151,70.2946,29.8831,62.3556,-0.00032236,-0.00045554,0.0,0 STARLINK-3232,1 50809U 22001G   22032.91667824 -.00045554  00000-0 -32236-3 0  9993,2 50809  53.2151  70.2946 0001498  29.8831  62.3556 15.73167073  3710,6727.989000000001,91.535,350.862,348.846,0.0
50809.0,STARLINK-3232,PAYLOAD,2022-02-02 06:00:00,15.73143703,0.0001617,53.215,68.6458,28.8877,152.2152,7.842e-05,0.00010373,0.0,0 STARLINK-3232,1 50809U 22001G   22033.25001157  .00010373  00000-0  78420-4 0  9997,2 50809  53.2150  68.6458 0001617  28.8877 152.2152 15.73143703  5469,6728.056,91.536,351.009,348.833,0.0
50809.0,STARLINK-3232,PAYLOAD,2022-02-02 14:00:01,15.73204175,0.000165,53.2173,66.9989,46.2324,223.5707,1.1332e-05,9.7e-06,0.0,0 STARLINK-3232,1 50809U 22001G   22033.58334491  .00000970  00000-0  11332-4 0  9994,2 50809  53.2173  66.9989 0001650  46.2324 223.5707 15.73204175  5517,6727.8830000000025,91.533,350.858,348.63800000000015,0.0
50809.0,STARLINK-3232,PAYLOAD,2022-02-02 20:00:01,15.73184032,0.0001641,53.2145,65.7583,32.0432,214.7325,0.00019126,0.00026288,0.0,0 STARLINK-3232,1 50809U 22001G   22033.83334491  .00026288  00000-0  19126-3 0  9990,2 50809  53.2145  65.7583 0001641  32.0432 214.7325 15.73184032  5557,6727.941,91.534,350.91,348.702,0.0
50809.0,STARLINK-3232,PAYLOAD,2022-02-02 22:00:00,15.73172429,0.000159,53.2143,65.3454,33.8004,325.2095,0.00042416,0.00059259,0.0,0 STARLINK-3232,1 50809U 22001G   22033.91667824  .00059259  00000-0  42416-3 0  9990,2 50809  53.2143  65.3454 0001590  33.8004 325.2095 15.73172429  3710,6727.974,91.535,350.909,348.769,0.0
50809.0,STARLINK-3232,PAYLOAD,2022-02-03 14:00:01,15.73212776,0.0001924,53.2146,62.0481,34.8329,142.0543,0.00014881,0.00020326,0.0,0 STARLINK-3232,1 50809U 22001G   22034.58334491  .00020326  00000-0  14881-3 0  9993,2 50809  53.2146  62.0481 0001924  34.8329 142.0543 15.73212776  3712,6727.859,91.532,351.01800000000014,348.42900000000014,0.0
50809.0,STARLINK-3232,PAYLOAD,2022-02-03 22:00:01,15.73213809,0.0001774,53.215,60.3961,38.8885,227.0491,-6.137699999999999e-05,-9.231e-05,0.0,0 STARLINK-3232,1 50809U 22001G   22034.91668981 -.00009231  00000-0 -61377-4 0  9991,2 50809  53.2150  60.3961 0001774  38.8885 227.0491 15.73213809  5722,6727.856,91.532,350.914,348.527,0.0
50809.0,STARLINK-3232,PAYLOAD,2022-02-04 14:00:01,15.73232819,0.0002083,53.2145,57.0986,36.9197,46.882,-0.00035679,-0.0005047,0.0,0 STARLINK-3232,1 50809U 22001G   22035.58335648 -.00050470  00000-0 -35679-3 0  9992,2 50809  53.2145  57.0986 0002083  36.9197  46.8820 15.73232819  3717,6727.802,91.531,351.0680000000001,348.265,0.0
50809.0,STARLINK-3232,PAYLOAD,2022-02-04 20:00:01,15.732042600000002,0.0001982,53.2174,55.8626,43.1467,16.9641,3.5499e-06,-1.23e-06,0.0,0 STARLINK-3232,1 50809U 22001G   22035.83334491 -.00000123  00000-0  35499-5 0  9996,2 50809  53.2174  55.8626 0001982  43.1467  16.9641 15.73204260  5870,6727.8830000000025,91.533,351.081,348.415,0.0
50809.0,STARLINK-3232,PAYLOAD,2022-02-04 22:00:00,15.73205297,0.0002077,53.2171,55.4497,43.3417,129.0025,-9.473e-06,-1.951e-05,0.0,0 STARLINK-3232,1 50809U 22001G   22035.91667824 -.00001951  00000-0 -94730-5 0  9998,2 50809  53.2171  55.4497 0002077  43.3417 129.0025 15.73205297  3693,6727.88,91.533,351.142,348.348,0.0
50809.0,STARLINK-3232,PAYLOAD,2022-02-05 03:22:05,15.73227171,0.0002037,53.2153,54.341,45.8804,314.2383,0.00036093,0.00050399,0.0,0 STARLINK-3232,1 50809U 22001G   22036.14034626  .00050399  00000-0  36093-3 0  9996,2 50809  53.2153  54.3410 0002037  45.8804 314.2383 15.73227171  5916,6727.818,91.532,351.05300000000005,348.31199999999984,0.0
50809.0,STARLINK-3232,PAYLOAD,2022-02-05 10:59:30,15.73215215,0.0001729,53.2154,52.7691,37.2657,322.8483,0.00035803,0.0004996,0.0,0 STARLINK-3232,1 50809U 22001G   22036.45798869  .00049960  00000-0  35803-3 0  9996,2 50809  53.2154  52.7691 0001729  37.2657 322.8483 15.73215215  5965,6727.852,91.532,350.88,348.55400000000014,0.0
50809.0,STARLINK-3232,PAYLOAD,2022-02-05 14:00:01,15.73196692,0.0001794,53.215,52.1501,25.4903,325.001,5.5417e-05,7.162e-05,0.0,0 STARLINK-3232,1 50809U 22001G   22036.58334491  .00007162  00000-0  55417-4 0  9999,2 50809  53.2150  52.1501 0001794  25.4903 325.0010 15.73196692  3674,6727.905,91.533,350.977,348.56300000000016,0.0
50809.0,STARLINK-3232,PAYLOAD,2022-02-05 20:00:01,15.73194848,0.0001633,53.2154,50.9112,28.6561,298.5326,0.00023281,0.00032171,0.0,0 STARLINK-3232,1 50809U 22001G   22036.83334491  .00032171  00000-0  23281-3 0  9998,2 50809  53.2154  50.9112 0001633  28.6561 298.5326 15.73194848  6026,6727.91,91.533,350.874,348.676,0.0
50809.0,STARLINK-3232,PAYLOAD,2022-02-06 06:00:00,15.73208533,0.0001828,53.2154,48.8504,31.15,137.2055,-0.0008847999999999,-0.00123051,0.0,0 STARLINK-3232,1 50809U 22001G   22037.25001157 -.00123051  00000-0 -88480-3 0  9997,2 50809  53.2154  48.8504 0001828  31.1500 137.2055 15.73208533  6097,6727.871,91.533,350.966,348.506,0.0
50809.0,STARLINK-3232,PAYLOAD,2022-02-06 14:00:01,15.73096159,0.0001827,53.2149,47.2011,24.4748,232.8182,6.4549e-05,8.408e-05,0.0,0 STARLINK-3232,1 50809U 22001G   22037.58335648  .00008408  00000-0  64549-4 0  9995,2 50809  53.2149  47.2011 0001827  24.4748 232.8182 15.73096159  3678,6728.191,91.539,351.285,348.827,0.0
50809.0,STARLINK-3232,PAYLOAD,2022-02-06 20:00:01,15.73052797,0.0001644,53.2152,45.9627,28.5583,205.2844,0.0012197,0.00173034,0.0,0 STARLINK-3232,1 50809U 22001G   22037.83334491  .00173034  00000-0  12197-2 0  9996,2 50809  53.2152  45.9627 0001644  28.5583 205.2844 15.73052797  6187,6728.315,91.542,351.286,349.074,0.0
50809.0,STARLINK-3232,PAYLOAD,2022-02-06 22:00:00,15.73061998,0.0001626,53.2151,45.5501,32.5102,313.5329,0.0014558,0.00207591,0.0,0 STARLINK-3232,1 50809U 22001G   22037.91667824  .00207591  00000-0  14558-2 0  9993,2 50809  53.2151  45.5501 0001626  32.5102 313.5329 15.73061998  3692,6728.2890000000025,91.541,351.24800000000016,349.06,0.0
50809.0,STARLINK-3232,PAYLOAD,2022-02-07 14:00:01,15.73277562,0.0001857,53.2155,42.2531,30.9038,132.9275,-0.0003708,-0.00052512,0.0,0 STARLINK-3232,1 50809U 22001G   22038.58334491 -.00052512  00000-0 -37080-3 0  9997,2 50809  53.2155  42.2531 0001857  30.9038 132.9275 15.73277562  6309,6727.674,91.529,350.788,348.29,0.0
50809.0,STARLINK-3232,PAYLOAD,2022-02-07 22:00:00,15.731869400000004,0.0001621,53.2158,40.6015,31.0466,221.7858,0.00062332,0.00087729,0.0,0 STARLINK-3232,1 50809U 22001G   22038.91667824  .00087729  00000-0  62332-3 0  9997,2 50809  53.2158  40.6015 0001621  31.0466 221.7858 15.73186940  3701,6727.932,91.534,350.88800000000015,348.707,0.0
50809.0,STARLINK-3232,PAYLOAD,2022-02-08 14:00:01,15.73219531,0.0001805,53.2153,37.304,23.839,46.8902,0.00015764,0.00021579,0.0,0 STARLINK-3232,1 50809U 22001G   22039.58334491  .00021579  00000-0  15764-3 0  9990,2 50809  53.2153  37.3040 0001805  23.8390  46.8902 15.73219531  6461,6727.839,91.532,350.9190000000001,348.49,0.0
50809.0,STARLINK-3232,PAYLOAD,2022-02-08 22:00:01,15.73246554,0.0001599,53.2155,35.6529,32.6604,127.0946,-0.00020477,-0.00029317,0.0,0 STARLINK-3232,1 50809U 22001G   22039.91668981 -.00029317  00000-0 -20477-3 0  9998,2 50809  53.2155  35.6529 0001599  32.6604 127.0946 15.73246554  3666,6727.762,91.53,350.70300000000015,348.552,0.0
50809.0,STARLINK-3232,PAYLOAD,2022-02-09 04:00:00,15.7324497,0.0001743,53.2157,34.4172,32.1571,104.263,-0.00047459,-0.00066831,0.0,0 STARLINK-3232,1 50809U 22001G   22040.16667824 -.00066831  00000-0 -47459-3 0  9993,2 50809  53.2157  34.4172 0001743  32.1571 104.2630 15.73244970  6556,6727.767,91.531,350.805,348.459,0.0
50809.0,STARLINK-3232,PAYLOAD,2022-02-09 12:00:00,15.73174529,0.0001817,53.2155,32.7685,26.1976,199.1856,0.0004034,0.00056314,0.0,0 STARLINK-3232,1 50809U 22001G   22040.50001157  .00056314  00000-0  40340-3 0  9997,2 50809  53.2155  32.7685 0001817  26.1976 199.1856 15.73174529  6609,6727.968000000003,91.535,351.055,348.61,0.0
50809.0,STARLINK-3232,PAYLOAD,2022-02-09 14:00:01,15.73200346,0.0001773,53.2157,32.3555,26.6938,310.9109,0.0001303,0.00017705,0.0,0 STARLINK-3232,1 50809U 22001G   22040.58334491  .00017705  00000-0  13030-3 0  9992,2 50809  53.2157  32.3555 0001773  26.6938 310.9109 15.73200346  3717,6727.894,91.533,350.952,348.566,0.0
